start=new Date('2022-05-16T00:00:00.000Z').valueOf();
sats=[{"MEAN_ANOMALY":"313.0282","REV_AT_EPOCH":"130","LAUNCH_DATE":"2021-05-26","TIME_SYSTEM":"UTC","TLE_LINE1":"1 48693U 21044BH  22135.91667824 -.00016800  00000-0 -11112-2 0  9992","FILE":"3447521","OBJECT_NAME":"STARLINK-2618","PERIOD":"95.591","EPHEMERIS_TYPE":"0","MEAN_ELEMENT_THEORY":"SGP4","NORAD_CAT_ID":"48693","APOAPSIS":"548.224","TLE_LINE2":"2 48693  53.0537 218.5129 0001512  59.2521 313.0282 15.06412106  1305","GP_ID":"203649034","ECCENTRICITY":"0.00015120","MEAN_MOTION_DDOT":"0.0000000000000","OBJECT_ID":"2021-044BH","INCLINATION":"53.0537","SEMIMAJOR_AXIS":"6925.311","OBJECT_TYPE":"PAYLOAD","MEAN_MOTION_DOT":"-0.00016800","PERIAPSIS":"546.129","DECAY_DATE":null,"RCS_SIZE":"LARGE","MEAN_MOTION":"15.06412106","EPOCH":"2022-05-15T22:00:00.999936","ARG_OF_PERICENTER":"59.2521","SITE":"AFETR","RA_OF_ASC_NODE":"218.5129","REF_FRAME":"TEME","COUNTRY_CODE":"US","ELEMENT_SET_NO":"999","CENTER_NAME":"EARTH","CLASSIFICATION_TYPE":"U","BSTAR":"-0.00111120000000"},{"EPHEMERIS_TYPE":"0","MEAN_ELEMENT_THEORY":"SGP4","NORAD_CAT_ID":"48694","APOAPSIS":"548.370","TLE_LINE2":"2 48694  53.0546 223.5123 0001663  42.4842 137.1839 15.06398310  1306","GP_ID":"203649784","MEAN_ANOMALY":"137.1839","REV_AT_EPOCH":"130","LAUNCH_DATE":"2021-05-26","TIME_SYSTEM":"UTC","PERIOD":"95.592","TLE_LINE1":"1 48694U 21044BJ  22135.91667824 -.00008344  00000-0 -54191-3 0  9992","FILE":"3447521","OBJECT_NAME":"STARLINK-2748","EPOCH":"2022-05-15T22:00:00.999936","RA_OF_ASC_NODE":"223.5123","SITE":"AFETR","ARG_OF_PERICENTER":"42.4842","ELEMENT_SET_NO":"999","CLASSIFICATION_TYPE":"U","CENTER_NAME":"EARTH","BSTAR":"-0.00054191000000","COUNTRY_CODE":"US","REF_FRAME":"TEME","INCLINATION":"53.0546","SEMIMAJOR_AXIS":"6925.354","ECCENTRICITY":"0.00016630","MEAN_MOTION_DDOT":"0.0000000000000","OBJECT_ID":"2021-044BJ","MEAN_MOTION_DOT":"-0.00008344","OBJECT_TYPE":"PAYLOAD","PERIAPSIS":"546.067","DECAY_DATE":null,"RCS_SIZE":"LARGE","MEAN_MOTION":"15.06398310"},{"EPOCH":"2022-05-15T22:00:00.999936","ARG_OF_PERICENTER":"64.1773","RA_OF_ASC_NODE":"223.5524","SITE":"AFETR","REF_FRAME":"TEME","COUNTRY_CODE":"US","ELEMENT_SET_NO":"999","CLASSIFICATION_TYPE":"U","BSTAR":"0.00641010000000","CENTER_NAME":"EARTH","ECCENTRICITY":"0.00014390","MEAN_MOTION_DDOT":"0.0000000000000","OBJECT_ID":"2021-044BK","INCLINATION":"53.0545","SEMIMAJOR_AXIS":"6925.551","OBJECT_TYPE":"PAYLOAD","MEAN_MOTION_DOT":"0.00096337","PERIAPSIS":"546.419","DECAY_DATE":null,"RCS_SIZE":"LARGE","MEAN_MOTION":"15.06333973","EPHEMERIS_TYPE":"0","NORAD_CAT_ID":"48695","MEAN_ELEMENT_THEORY":"SGP4","APOAPSIS":"548.413","TLE_LINE2":"2 48695  53.0545 223.5524 0001439  64.1773 355.3286 15.06333973  1300","GP_ID":"203649533","MEAN_ANOMALY":"355.3286","REV_AT_EPOCH":"130","LAUNCH_DATE":"2021-05-26","TIME_SYSTEM":"UTC","TLE_LINE1":"1 48695U 21044BK  22135.91667824  .00096337  00000-0  64101-2 0  9991","OBJECT_NAME":"STARLINK-2616","FILE":"3447521","PERIOD":"95.596"},{"SEMIMAJOR_AXIS":"6925.382","INCLINATION":"53.0529","MEAN_MOTION_DDOT":"0.0000000000000","OBJECT_ID":"2021-044BL","ECCENTRICITY":"0.00013740","OBJECT_TYPE":"PAYLOAD","PERIAPSIS":"546.296","MEAN_MOTION_DOT":"-0.00000266","DECAY_DATE":null,"RCS_SIZE":"LARGE","MEAN_MOTION":"15.06388957","EPOCH":"2022-05-15T15:08:07.588896","RA_OF_ASC_NODE":"229.8398","SITE":"AFETR","ARG_OF_PERICENTER":"69.2363","CENTER_NAME":"EARTH","BSTAR":"0.00000105650000","CLASSIFICATION_TYPE":"U","ELEMENT_SET_NO":"999","COUNTRY_CODE":"US","REF_FRAME":"TEME","MEAN_ANOMALY":"290.8773","REV_AT_EPOCH":"5401","TIME_SYSTEM":"UTC","LAUNCH_DATE":"2021-05-26","PERIOD":"95.593","FILE":"3447521","OBJECT_NAME":"STARLINK-2753","TLE_LINE1":"1 48696U 21044BL  22135.63064339 -.00000266  00000-0  10565-5 0  9998","EPHEMERIS_TYPE":"0","MEAN_ELEMENT_THEORY":"SGP4","NORAD_CAT_ID":"48696","APOAPSIS":"548.199","GP_ID":"203650279","TLE_LINE2":"2 48696  53.0529 229.8398 0001374  69.2363 290.8773 15.06388957 54012"},{"EPHEMERIS_TYPE":"0","MEAN_ELEMENT_THEORY":"SGP4","NORAD_CAT_ID":"48697","APOAPSIS":"548.343","TLE_LINE2":"2 48697  53.0545 230.2706 0001668  59.9528 300.1626 15.06408478 53994","GP_ID":"203613643","MEAN_ANOMALY":"300.1626","REV_AT_EPOCH":"5399","LAUNCH_DATE":"2021-05-26","TIME_SYSTEM":"UTC","PERIOD":"95.592","TLE_LINE1":"1 48697U 21044BM  22135.52742650  .00001513  00000-0  12042-3 0  9991","OBJECT_NAME":"STARLINK-2715","FILE":"3447100","EPOCH":"2022-05-15T12:39:29.649600","RA_OF_ASC_NODE":"230.2706","SITE":"AFETR","ARG_OF_PERICENTER":"59.9528","ELEMENT_SET_NO":"999","CENTER_NAME":"EARTH","CLASSIFICATION_TYPE":"U","BSTAR":"0.00012042000000","COUNTRY_CODE":"US","REF_FRAME":"TEME","INCLINATION":"53.0545","SEMIMAJOR_AXIS":"6925.323","ECCENTRICITY":"0.00016680","MEAN_MOTION_DDOT":"0.0000000000000","OBJECT_ID":"2021-044BM","PERIAPSIS":"546.032","OBJECT_TYPE":"PAYLOAD","MEAN_MOTION_DOT":"0.00001513","DECAY_DATE":null,"RCS_SIZE":"LARGE","MEAN_MOTION":"15.06408478"},{"RCS_SIZE":"LARGE","MEAN_MOTION":"15.16564177","DECAY_DATE":null,"OBJECT_TYPE":"PAYLOAD","PERIAPSIS":"512.190","MEAN_MOTION_DOT":"-0.00002337","MEAN_MOTION_DDOT":"0.0000000000000","OBJECT_ID":"2021-059A","ECCENTRICITY":"0.00058690","SEMIMAJOR_AXIS":"6894.371","INCLINATION":"97.5376","COUNTRY_CODE":"US","REF_FRAME":"TEME","CENTER_NAME":"EARTH","CLASSIFICATION_TYPE":"U","BSTAR":"-0.00011640000000","ELEMENT_SET_NO":"999","ARG_OF_PERICENTER":"142.7795","SITE":"AFETR","RA_OF_ASC_NODE":"266.8978","EPOCH":"2022-05-15T22:00:00.999936","OBJECT_NAME":"STARLINK-3003","FILE":"3447140","TLE_LINE1":"1 48879U 21059A   22135.91667824 -.00002337  00000-0 -11640-3 0  9991","PERIOD":"94.951","TIME_SYSTEM":"UTC","LAUNCH_DATE":"2021-06-30","REV_AT_EPOCH":"4959","MEAN_ANOMALY":"150.1313","GP_ID":"203618368","TLE_LINE2":"2 48879  97.5376 266.8978 0005869 142.7795 150.1313 15.16564177 49598","APOAPSIS":"520.282","NORAD_CAT_ID":"48879","MEAN_ELEMENT_THEORY":"SGP4","EPHEMERIS_TYPE":"0"},{"EPOCH":"2022-05-15T22:00:00.999936","RA_OF_ASC_NODE":"266.8992","SITE":"AFETR","ARG_OF_PERICENTER":"143.6139","ELEMENT_SET_NO":"999","CLASSIFICATION_TYPE":"U","CENTER_NAME":"EARTH","BSTAR":"0.00000836990000","REF_FRAME":"TEME","COUNTRY_CODE":"US","SEMIMAJOR_AXIS":"6894.711","INCLINATION":"97.5371","ECCENTRICITY":"0.00058970","MEAN_MOTION_DDOT":"0.0000000000000","OBJECT_ID":"2021-059B","OBJECT_TYPE":"PAYLOAD","PERIAPSIS":"512.510","MEAN_MOTION_DOT":"0.00000096","DECAY_DATE":null,"RCS_SIZE":"LARGE","MEAN_MOTION":"15.16451910","EPHEMERIS_TYPE":"0","MEAN_ELEMENT_THEORY":"SGP4","NORAD_CAT_ID":"48880","APOAPSIS":"520.642","TLE_LINE2":"2 48880  97.5371 266.8992 0005897 143.6139 165.9607 15.16451910  1301","GP_ID":"203651807","MEAN_ANOMALY":"165.9607","REV_AT_EPOCH":"130","LAUNCH_DATE":"2021-06-30","TIME_SYSTEM":"UTC","PERIOD":"94.959","TLE_LINE1":"1 48880U 21059B   22135.91667824  .00000096  00000-0  83699-5 0  9996","OBJECT_NAME":"STARLINK-3004","FILE":"3447521"},{"OBJECT_NAME":"STARLINK-3005","FILE":"3447181","TLE_LINE1":"1 48881U 21059C   22135.91667824  .00001850  00000-0  97881-4 0  9993","PERIOD":"94.944","TIME_SYSTEM":"UTC","LAUNCH_DATE":"2021-06-30","REV_AT_EPOCH":"4959","MEAN_ANOMALY":"177.6229","GP_ID":"203619537","TLE_LINE2":"2 48881  97.5375 266.9204 0005546 133.0353 177.6229 15.16691436 49597","APOAPSIS":"519.674","NORAD_CAT_ID":"48881","MEAN_ELEMENT_THEORY":"SGP4","EPHEMERIS_TYPE":"0","MEAN_MOTION":"15.16691436","RCS_SIZE":"LARGE","DECAY_DATE":null,"OBJECT_TYPE":"PAYLOAD","MEAN_MOTION_DOT":"0.00001850","PERIAPSIS":"512.027","MEAN_MOTION_DDOT":"0.0000000000000","OBJECT_ID":"2021-059C","ECCENTRICITY":"0.00055460","SEMIMAJOR_AXIS":"6893.985","INCLINATION":"97.5375","REF_FRAME":"TEME","COUNTRY_CODE":"US","CLASSIFICATION_TYPE":"U","BSTAR":"0.00009788100000","CENTER_NAME":"EARTH","ELEMENT_SET_NO":"999","ARG_OF_PERICENTER":"133.0353","SITE":"AFETR","RA_OF_ASC_NODE":"266.9204","EPOCH":"2022-05-15T22:00:00.999936"},{"PERIOD":"95.487","TLE_LINE1":"1 49131U 21082B   22135.91667824 -.00552671  00000-0 -38182-1 0  9998","OBJECT_NAME":"STARLINK-3096","FILE":"3447521","LAUNCH_DATE":"2021-09-14","TIME_SYSTEM":"UTC","REV_AT_EPOCH":"130","MEAN_ANOMALY":"138.3122","TLE_LINE2":"2 49131  70.0001 168.8295 0003288 271.8727 138.3122 15.08063574  1305","GP_ID":"203651085","APOAPSIS":"544.395","NORAD_CAT_ID":"49131","MEAN_ELEMENT_THEORY":"SGP4","EPHEMERIS_TYPE":"0","MEAN_MOTION":"15.08063574","RCS_SIZE":"LARGE","DECAY_DATE":null,"MEAN_MOTION_DOT":"-0.00552671","OBJECT_TYPE":"PAYLOAD","PERIAPSIS":"539.844","SEMIMAJOR_AXIS":"6920.255","INCLINATION":"70.0001","ECCENTRICITY":"0.00032880","OBJECT_ID":"2021-082B","MEAN_MOTION_DDOT":"0.0000000000000","ELEMENT_SET_NO":"999","BSTAR":"-0.03818200000000","CENTER_NAME":"EARTH","CLASSIFICATION_TYPE":"U","REF_FRAME":"TEME","COUNTRY_CODE":"US","RA_OF_ASC_NODE":"168.8295","SITE":"AFWTR","ARG_OF_PERICENTER":"271.8727","EPOCH":"2022-05-15T22:00:00.999936"},{"SEMIMAJOR_AXIS":"6950.238","INCLINATION":"70.0008","MEAN_MOTION_DDOT":"0.0000000000000","OBJECT_ID":"2021-082C","ECCENTRICITY":"0.00031890","OBJECT_TYPE":"PAYLOAD","PERIAPSIS":"569.886","MEAN_MOTION_DOT":"-0.00008963","DECAY_DATE":null,"MEAN_MOTION":"14.98315523","RCS_SIZE":"LARGE","EPOCH":"2022-05-15T22:00:00.999936","RA_OF_ASC_NODE":"208.6413","SITE":"AFWTR","ARG_OF_PERICENTER":"278.2034","CENTER_NAME":"EARTH","CLASSIFICATION_TYPE":"U","BSTAR":"-0.00074461000000","ELEMENT_SET_NO":"999","REF_FRAME":"TEME","COUNTRY_CODE":"US","MEAN_ANOMALY":"108.1573","REV_AT_EPOCH":"130","TIME_SYSTEM":"UTC","LAUNCH_DATE":"2021-09-14","PERIOD":"96.108","FILE":"3447521","OBJECT_NAME":"STARLINK-3090","TLE_LINE1":"1 49132U 21082C   22135.91667824 -.00008963  00000-0 -74461-3 0  9991","EPHEMERIS_TYPE":"0","MEAN_ELEMENT_THEORY":"SGP4","NORAD_CAT_ID":"49132","APOAPSIS":"574.319","GP_ID":"203651335","TLE_LINE2":"2 49132  70.0008 208.6413 0003189 278.2034 108.1573 14.98315523  1307"}];
